50475,ONEWEB-0395,2021,109.81,148.0,+,87.9,Active,1,LEO,Kazakhstan,UK,Commercial,Communications,Soyuz,1 50475U 21132G   24265.59866600  .00000382  00000+0  10424-2 0  9994,2 50475  87.8958 147.2842 0001932  66.5844 293.5487 13.11415351132676,13.11415351,0.0001932,LEO
50476,ONEWEB-0396,2021,109.2,148.0,+,87.91,Active,1,LEO,Kazakhstan,UK,Commercial,Communications,Soyuz,1 50476U 21132H   24265.52274723  .00000051  00000+0  97601-4 0  9994,2 50476  87.9057 101.5854 0001579  80.8402 279.2908 13.18687764138121,13.18687764,0.0001579,LEO
50477,ONEWEB-0397,2021,109.2,148.0,+,87.91,Active,1,LEO,Kazakhstan,UK,Commercial,Communications,Soyuz,1 50477U 21132J   24265.84050710  .00000164  00000+0  38230-3 0  9995,2 50477  87.9057 101.5234 0001496  87.8785 272.2518 13.18686360139417,13.1868636,0.0001496,LEO
50478,ONEWEB-0398,2021,109.8,148.0,+,87.9,Active,1,LEO,Kazakhstan,UK,Commercial,Communications,Soyuz,1 50478U 21132K   24265.41384713 -.00000063  00000+0 -21437-3 0  9993,2 50478  87.8957 147.2966 0002212  73.4436 286.6935 13.11417791132548,13.11417791,0.0002212,LEO
50479,ONEWEB-0399,2021,109.8,148.0,+,87.9,Active,1,LEO,Kazakhstan,UK,Commercial,Communications,Soyuz,1 50479U 21132L   24265.40027817 -.00000500  00000+0 -14475-2 0  9991,2 50479  87.8958 147.3175 0001444  70.9372 289.1912 13.11417864132533,13.11417864,0.0001444,LEO
50481,ONEWEB-0401,2021,109.2,148.0,+,87.91,Active,1,LEO,Kazakhstan,UK,Commercial,Communications,Soyuz,1 50481U 21132N   24265.48323205  .00000089  00000+0  19381-3 0  9994,2 50481  87.9052 101.5903 0001447  91.8783 268.2515 13.18688492138092,13.18688492,0.0001447,LEO
50482,ONEWEB-0402,2021,109.2,148.0,+,87.91,Active,1,LEO,Kazakhstan,UK,Commercial,Communications,Soyuz,1 50482U 21132P   24265.52435418  .00000003  00000+0 -24243-4 0  9991,2 50482  87.9051 101.5796 0001244 108.0001 252.1267 13.18685824138127,13.18685824,0.0001244,LEO
